ONEWEB-0136             
1 47282U 20100AA  26159.04310153 -.00000051  00000+0 -17802-3 0  9994
2 47282  87.8950 352.4686 0001519  94.3913 265.7389 13.12444302263466
ONEWEB-0137             
1 47283U 20100AB  26159.00074996  .00000222  00000+0  58207-3 0  9995
2 47283  87.8953 352.4863 0001942  89.0499 271.0852 13.12442256263367
ONEWEB-0138             
1 47284U 20100AC  26159.05497017  .00000244  00000+0  64396-3 0  9994
2 47284  87.8950 352.4817 0001636  93.5943 266.5373 13.12443769263455
ONEWEB-0139             
1 47285U 20100AD  26159.09575628 -.00000366  00000+0 -10526-2 0  9996
2 47285  87.8949 352.4597 0001756  90.0458 270.0871 13.12443661263538
ONEWEB-0140             
1 47286U 20100AE  26159.04988300  .00000060  00000+0  13005-3 0  9992
2 47286  87.8951 352.4598 0001693  83.4449 276.6872 13.12444880263491
ONEWEB-0141             
1 47287U 20100AF  26159.09548064 -.00000290  00000+0 -84281-3 0  9998
2 47287  87.8950 352.4552 0002084  91.2851 268.8517 13.12443585263489
ONEWEB-0142             
1 47288U 20100AG  26159.00767986  .00000022  00000+0  26388-4 0  9992
2 47288  87.8944 352.4950 0002020 100.2607 259.8750 13.12441137263463
ONEWEB-0143             
1 47289U 20100AH  26159.09392574 -.00000419  00000+0 -12009-2 0  9994
2 47289  87.8950 352.4763 0001866  88.6658 271.4685 13.12443007263459
ONEWEB-0144             
1 47290U 20100AJ  26159.06514843  .00000477  00000+0  12901-2 0  9991
2 47290  87.8954 352.4556 0001663 100.5959 259.5356 13.12443751263377
ONEWEB-0145             
1 47291U 20100AK  26159.03632555 -.00000227  00000+0 -66581-3 0  9999
2 47291  87.8943 352.4905 0001799  91.9509 268.1825 13.12444172263564
ONEWEB-0146             
1 47292U 20100AL  26159.03293933 -.00000378  00000+0 -10857-2 0  9994
2 47292  87.8951 352.4822 0001850  78.4194 281.7142 13.12443708263477
ONEWEB-0147             
1 47293U 20100AM  26158.92282082  .00000153  00000+0  39006-3 0  9992
2 47293  87.8951 352.4853 0001611  87.8129 272.3184 13.12441966263352
ONEWEB-0115             
1 48042U 21025A   26158.95822964 -.00000095  00000+0 -29400-3 0  9998
2 48042  87.8952 322.0614 0001803  92.6404 267.4931 13.13469806252387
ONEWEB-0152             
1 48043U 21025B   26159.20030541  .00000239  00000+0  62036-3 0  9990
2 48043  87.8952 322.0096 0001762  90.5631 269.5700 13.13470094252372
ONEWEB-0153             
1 48044U 21025C   26159.17829322 -.00000300  00000+0 -85742-3 0  9990
2 48044  87.8951 322.0177 0001883  97.0559 263.0784 13.13469855252360
ONEWEB-0154             
1 48045U 21025D   26159.17490529 -.00000283  00000+0 -80953-3 0  9993
2 48045  87.8950 322.0156 0001711  94.6779 265.4545 13.13468924252327
